{"type":"FeatureCollection","features":[{"type":"Feature","properties":{"name":"Western Australia","country":"Australia","iso":"AU"},"geometry":{"type":"Point","coordinates":[121.646,-25.848]}},{"type":"Feature","properties":{"name":"Northern Territory","country":"Australia","iso":"AU"},"geometry":{"type":"Point","coordinates":[133.78,-20.103]}},{"type":"Feature","properties":{"name":"South Australia","country":"Australia","iso":"AU"},"geometry":{"type":"Point","coordinates":[135.783,-29.65]}},{"type":"Feature","properties":{"name":"Queensland","country":"Australia","iso":"AU"},"geometry":{"type":"Point","coordinates":[144.778,-23.136]}},{"type":"Feature","properties":{"name":"Tasmania","country":"Australia","iso":"AU"},"geometry":{"type":"Point","coordinates":[146.603,-42.138]}},{"type":"Feature","properties":{"name":"Victoria","country":"Australia","iso":"AU"},"geometry":{"type":"Point","coordinates":[144.75,-37.008]}},{"type":"Feature","properties":{"name":"Australian Capital Territory","country":"Australia","iso":"AU"},"geometry":{"type":"Point","coordinates":[148.983,-35.462]}},{"type":"Feature","properties":{"name":"Jervis Bay Territory","country":"Australia","iso":"AU"},"geometry":{"type":"Point","coordinates":[150.692,-35.153]}},{"type":"Feature","properties":{"name":"New South Wales","country":"Australia","iso":"AU"},"geometry":{"type":"Point","coordinates":[146.781,-32.475]}},{"type":"Feature","properties":{"name":"Acre","country":"Brazil","iso":"BR"},"geometry":{"type":"Point","coordinates":[-70.298,-8.928]}},{"type":"Feature","properties":{"name":"Rondônia","country":"Brazil","iso":"BR"},"geometry":{"type":"Point","coordinates":[-63.144,-10.971]}},{"type":"Feature","properties":{"name":"Roraima","country":"Brazil","iso":"BR"},"geometry":{"type":"Point","coordinates":[-61.333,1.938]}},{"type":"Feature","properties":{"name":"Amazonas","country":"Brazil","iso":"BR"},"geometry":{"type":"Point","coordinates":[-63.785,-4.218]}},{"type":"Feature","properties":{"name":"Pará","country":"Brazil","iso":"BR"},"geometry":{"type":"Point","coordinates":[-52.649,-4.443]}},{"type":"Feature","properties":{"name":"Mato Grosso do Sul","country":"Brazil","iso":"BR"},"geometry":{"type":"Point","coordinates":[-54.55,-20.676]}},{"type":"Feature","properties":{"name":"Amapá","country":"Brazil","iso":"BR"},"geometry":{"type":"Point","coordinates":[-51.684,1.412]}},{"type":"Feature","properties":{"name":"Mato Grosso","country":"Brazil","iso":"BR"},"geometry":{"type":"Point","coordinates":[-55.923,-13.393]}},{"type":"Feature","properties":{"name":"Paraná","country":"Brazil","iso":"BR"},"geometry":{"type":"Point","coordinates":[-51.323,-24.662]}},{"type":"Feature","properties":{"name":"Distrito Federal","country":"Brazil","iso":"BR"},"geometry":{"type":"Point","coordinates":[-47.79,-15.767]}},{"type":"Feature","properties":{"name":"Goiás","country":"Brazil","iso":"BR"},"geometry":{"type":"Point","coordinates":[-49.579,-15.863]}},{"type":"Feature","properties":{"name":"Tocantins","country":"Brazil","iso":"BR"},"geometry":{"type":"Point","coordinates":[-48.25,-10.223]}},{"type":"Feature","properties":{"name":"São Paulo","country":"Brazil","iso":"BR"},"geometry":{"type":"Point","coordinates":[-48.521,-22.227]}},{"type":"Feature","properties":{"name":"Maranhão","country":"Brazil","iso":"BR"},"geometry":{"type":"Point","coordinates":[-45.389,-5.019]}},{"type":"Feature","properties":{"name":"Rio de Janeiro","country":"Brazil","iso":"BR"},"geometry":{"type":"Point","coordinates":[-43.115,-22.405]}},{"type":"Feature","properties":{"name":"Piauí","country":"Brazil","iso":"BR"},"geometry":{"type":"Point","coordinates":[-43.197,-8.087]}},{"type":"Feature","properties":{"name":"Minas Gerais","country":"Brazil","iso":"BR"},"geometry":{"type":"Point","coordinates":[-44.481,-18.59]}},{"type":"Feature","properties":{"name":"Espírito Santo","country":"Brazil","iso":"BR"},"geometry":{"type":"Point","coordinates":[-40.544,-19.692]}},{"type":"Feature","properties":{"name":"Bahia","country":"Brazil","iso":"BR"},"geometry":{"type":"Point","coordinates":[-41.803,-12.365]}},{"type":"Feature","properties":{"name":"Ceará","country":"Brazil","iso":"BR"},"geometry":{"type":"Point","coordinates":[-39.343,-5.376]}},{"type":"Feature","properties":{"name":"Sergipe","country":"Brazil","iso":"BR"},"geometry":{"type":"Point","coordinates":[-37.384,-10.592]}},{"type":"Feature","properties":{"name":"Alagoas","country":"Brazil","iso":"BR"},"geometry":{"type":"Point","coordinates":[-36.692,-9.774]}},{"type":"Feature","properties":{"name":"Rio Grande do Norte","country":"Brazil","iso":"BR"},"geometry":{"type":"Point","coordinates":[-36.547,-5.662]}},{"type":"Feature","properties":{"name":"Pernambuco","country":"Brazil","iso":"BR"},"geometry":{"type":"Point","coordinates":[-37.296,-8.473]}},{"type":"Feature","properties":{"name":"Paraíba","country":"Brazil","iso":"BR"},"geometry":{"type":"Point","coordinates":[-36.273,-7.342]}},{"type":"Feature","properties":{"name":"Santa Catarina","country":"Brazil","iso":"BR"},"geometry":{"type":"Point","coordinates":[-51.159,-27.039]}},{"type":"Feature","properties":{"name":"Rio Grande do Sul","country":"Brazil","iso":"BR"},"geometry":{"type":"Point","coordinates":[-53.656,-29.728]}},{"type":"Feature","properties":{"name":"Alberta","country":"Canada","iso":"CA"},"geometry":{"type":"Point","coordinates":[-115,55.282]}},{"type":"Feature","properties":{"name":"British Columbia","country":"Canada","iso":"CA"},"geometry":{"type":"Point","coordinates":[-124.662,54.694]}},{"type":"Feature","properties":{"name":"Manitoba","country":"Canada","iso":"CA"},"geometry":{"type":"Point","coordinates":[-97.383,54.85]}},{"type":"Feature","properties":{"name":"New Brunswick","country":"Canada","iso":"CA"},"geometry":{"type":"Point","coordinates":[-66.456,46.582]}},{"type":"Feature","properties":{"name":"Newfoundland and Labrador","country":"Canada","iso":"CA"},"geometry":{"type":"Point","coordinates":[-56.217,48.66]}},{"type":"Feature","properties":{"name":"Nova Scotia","country":"Canada","iso":"CA"},"geometry":{"type":"Point","coordinates":[-62.811,45.229]}},{"type":"Feature","properties":{"name":"Northwest Territories","country":"Canada","iso":"CA"},"geometry":{"type":"Point","coordinates":[-119.942,64.083]}},{"type":"Feature","properties":{"name":"Nunavut","country":"Canada","iso":"CA"},"geometry":{"type":"Point","coordinates":[-97.144,64.385]}},{"type":"Feature","properties":{"name":"Ontario","country":"Canada","iso":"CA"},"geometry":{"type":"Point","coordinates":[-84.794,50.524]}},{"type":"Feature","properties":{"name":"Prince Edward Island","country":"Canada","iso":"CA"},"geometry":{"type":"Point","coordinates":[-63.386,46.342]}},{"type":"Feature","properties":{"name":"Québec","country":"Canada","iso":"CA"},"geometry":{"type":"Point","coordinates":[-73.717,52.259]}},{"type":"Feature","properties":{"name":"Saskatchewan","country":"Canada","iso":"CA"},"geometry":{"type":"Point","coordinates":[-105.682,54.496]}},{"type":"Feature","properties":{"name":"Yukon","country":"Canada","iso":"CA"},"geometry":{"type":"Point","coordinates":[-135.7,63.609]}},{"type":"Feature","properties":{"name":"Alaska","country":"United States of America","iso":"US"},"geometry":{"type":"Point","coordinates":[-151.604,65.361]}},{"type":"Feature","properties":{"name":"Alabama","country":"United States of America","iso":"US"},"geometry":{"type":"Point","coordinates":[-86.718,32.855]}},{"type":"Feature","properties":{"name":"Arkansas","country":"United States of America","iso":"US"},"geometry":{"type":"Point","coordinates":[-92.143,34.756]}},{"type":"Feature","properties":{"name":"Arizona","country":"United States of America","iso":"US"},"geometry":{"type":"Point","coordinates":[-111.935,34.305]}},{"type":"Feature","properties":{"name":"California","country":"United States of America","iso":"US"},"geometry":{"type":"Point","coordinates":[-119.591,36.75]}},{"type":"Feature","properties":{"name":"Colorado","country":"United States of America","iso":"US"},"geometry":{"type":"Point","coordinates":[-105.543,39.0]}},{"type":"Feature","properties":{"name":"Connecticut","country":"United States of America","iso":"US"},"geometry":{"type":"Point","coordinates":[-72.759,41.649]}},{"type":"Feature","properties":{"name":"District of Columbia","country":"United States of America","iso":"US"},"geometry":{"type":"Point","coordinates":[-77.011,38.892]}},{"type":"Feature","properties":{"name":"Delaware","country":"United States of America","iso":"US"},"geometry":{"type":"Point","coordinates":[-75.411,38.866]}},{"type":"Feature","properties":{"name":"Florida","country":"United States of America","iso":"US"},"geometry":{"type":"Point","coordinates":[-81.623,28.157]}},{"type":"Feature","properties":{"name":"Georgia","country":"United States of America","iso":"US"},"geometry":{"type":"Point","coordinates":[-83.408,32.855]}},{"type":"Feature","properties":{"name":"Hawaii","country":"United States of America","iso":"US"},"geometry":{"type":"Point","coordinates":[-157.999,21.492]}},{"type":"Feature","properties":{"name":"Iowa","country":"United States of America","iso":"US"},"geometry":{"type":"Point","coordinates":[-93.389,42.042]}},{"type":"Feature","properties":{"name":"Idaho","country":"United States of America","iso":"US"},"geometry":{"type":"Point","coordinates":[-114.133,43.782]}},{"type":"Feature","properties":{"name":"Illinois","country":"United States of America","iso":"US"},"geometry":{"type":"Point","coordinates":[-89.199,39.946]}},{"type":"Feature","properties":{"name":"Indiana","country":"United States of America","iso":"US"},"geometry":{"type":"Point","coordinates":[-86.14,39.887]}},{"type":"Feature","properties":{"name":"Kansas","country":"United States of America","iso":"US"},"geometry":{"type":"Point","coordinates":[-98.331,38.5]}},{"type":"Feature","properties":{"name":"Kentucky","country":"United States of America","iso":"US"},"geometry":{"type":"Point","coordinates":[-85.573,37.399]}},{"type":"Feature","properties":{"name":"Louisiana","country":"United States of America","iso":"US"},"geometry":{"type":"Point","coordinates":[-91.999,30.527]}},{"type":"Feature","properties":{"name":"Massachusetts","country":"United States of America","iso":"US"},"geometry":{"type":"Point","coordinates":[-71.999,42.374]}},{"type":"Feature","properties":{"name":"Maryland","country":"United States of America","iso":"US"},"geometry":{"type":"Point","coordinates":[-77.045,39.387]}},{"type":"Feature","properties":{"name":"Maine","country":"United States of America","iso":"US"},"geometry":{"type":"Point","coordinates":[-69.197,45.148]}},{"type":"Feature","properties":{"name":"Michigan","country":"United States of America","iso":"US"},"geometry":{"type":"Point","coordinates":[-84.948,43.434]}},{"type":"Feature","properties":{"name":"Minnesota","country":"United States of America","iso":"US"},"geometry":{"type":"Point","coordinates":[-93.364,46.059]}},{"type":"Feature","properties":{"name":"Missouri","country":"United States of America","iso":"US"},"geometry":{"type":"Point","coordinates":[-92.446,38.549]}},{"type":"Feature","properties":{"name":"Mississippi","country":"United States of America","iso":"US"},"geometry":{"type":"Point","coordinates":[-89.719,32.866]}},{"type":"Feature","properties":{"name":"Montana","country":"United States of America","iso":"US"},"geometry":{"type":"Point","coordinates":[-110.044,46.996]}},{"type":"Feature","properties":{"name":"North Carolina","country":"United States of America","iso":"US"},"geometry":{"type":"Point","coordinates":[-78.866,35.615]}},{"type":"Feature","properties":{"name":"North Dakota","country":"United States of America","iso":"US"},"geometry":{"type":"Point","coordinates":[-100.302,47.468]}},{"type":"Feature","properties":{"name":"Nebraska","country":"United States of America","iso":"US"},"geometry":{"type":"Point","coordinates":[-99.686,41.5]}},{"type":"Feature","properties":{"name":"New Hampshire","country":"United States of America","iso":"US"},"geometry":{"type":"Point","coordinates":[-71.63,43.599]}},{"type":"Feature","properties":{"name":"New Jersey","country":"United States of America","iso":"US"},"geometry":{"type":"Point","coordinates":[-74.465,40.045]}},{"type":"Feature","properties":{"name":"New Mexico","country":"United States of America","iso":"US"},"geometry":{"type":"Point","coordinates":[-106.024,34.5]}},{"type":"Feature","properties":{"name":"Nevada","country":"United States of America","iso":"US"},"geometry":{"type":"Point","coordinates":[-117.02,39.43]}},{"type":"Feature","properties":{"name":"New York","country":"United States of America","iso":"US"},"geometry":{"type":"Point","coordinates":[-75.324,43.199]}},{"type":"Feature","properties":{"name":"Ohio","country":"United States of America","iso":"US"},"geometry":{"type":"Point","coordinates":[-82.672,40.092]}},{"type":"Feature","properties":{"name":"Oklahoma","country":"United States of America","iso":"US"},"geometry":{"type":"Point","coordinates":[-97.131,35.452]}},{"type":"Feature","properties":{"name":"Oregon","country":"United States of America","iso":"US"},"geometry":{"type":"Point","coordinates":[-120.386,43.833]}},{"type":"Feature","properties":{"name":"Pennsylvania","country":"United States of America","iso":"US"},"geometry":{"type":"Point","coordinates":[-77.609,40.86]}},{"type":"Feature","properties":{"name":"Rhode Island","country":"United States of America","iso":"US"},"geometry":{"type":"Point","coordinates":[-71.508,41.624]}},{"type":"Feature","properties":{"name":"South Carolina","country":"United States of America","iso":"US"},"geometry":{"type":"Point","coordinates":[-80.647,33.858]}},{"type":"Feature","properties":{"name":"South Dakota","country":"United States of America","iso":"US"},"geometry":{"type":"Point","coordinates":[-100.255,44.471]}},{"type":"Feature","properties":{"name":"Tennessee","country":"United States of America","iso":"US"},"geometry":{"type":"Point","coordinates":[-86.341,35.751]}},{"type":"Feature","properties":{"name":"Texas","country":"United States of America","iso":"US"},"geometry":{"type":"Point","coordinates":[-98.761,31.131]}},{"type":"Feature","properties":{"name":"Utah","country":"United States of America","iso":"US"},"geometry":{"type":"Point","coordinates":[-111.544,39.501]}},{"type":"Feature","properties":{"name":"Virginia","country":"United States of America","iso":"US"},"geometry":{"type":"Point","coordinates":[-78.243,37.74]}},{"type":"Feature","properties":{"name":"Vermont","country":"United States of America","iso":"US"},"geometry":{"type":"Point","coordinates":[-72.732,44.089]}},{"type":"Feature","properties":{"name":"Washington","country":"United States of America","iso":"US"},"geometry":{"type":"Point","coordinates":[-120.361,47.486]}},{"type":"Feature","properties":{"name":"Wisconsin","country":"United States of America","iso":"US"},"geometry":{"type":"Point","coordinates":[-89.583,44.371]}},{"type":"Feature","properties":{"name":"West Virginia","country":"United States of America","iso":"US"},"geometry":{"type":"Point","coordinates":[-80.713,38.642]}},{"type":"Feature","properties":{"name":"Wyoming","country":"United States of America","iso":"US"},"geometry":{"type":"Point","coordinates":[-107.552,43.0]}},{"type":"Feature","properties":{"name":"Gansu","country":"China","iso":"CN"},"geometry":{"type":"Point","coordinates":[100.735,38.739]}},{"type":"Feature","properties":{"name":"Qinghai","country":"China","iso":"CN"},"geometry":{"type":"Point","coordinates":[96.238,35.265]}},{"type":"Feature","properties":{"name":"Guangxi","country":"China","iso":"CN"},"geometry":{"type":"Point","coordinates":[108.756,23.745]}},{"type":"Feature","properties":{"name":"Guizhou","country":"China","iso":"CN"},"geometry":{"type":"Point","coordinates":[106.559,26.803]}},{"type":"Feature","properties":{"name":"Chongqing","country":"China","iso":"CN"},"geometry":{"type":"Point","coordinates":[107.73,30.017]}},{"type":"Feature","properties":{"name":"Beijing","country":"China","iso":"CN"},"geometry":{"type":"Point","coordinates":[116.389,39.949]}},{"type":"Feature","properties":{"name":"Fujian","country":"China","iso":"CN"},"geometry":{"type":"Point","coordinates":[118.178,26.408]}},{"type":"Feature","properties":{"name":"Anhui","country":"China","iso":"CN"},"geometry":{"type":"Point","coordinates":[117.253,31.954]}},{"type":"Feature","properties":{"name":"Guangdong","country":"China","iso":"CN"},"geometry":{"type":"Point","coordinates":[113.72,23.792]}},{"type":"Feature","properties":{"name":"Xizang","country":"China","iso":"CN"},"geometry":{"type":"Point","coordinates":[88.414,31.451]}},{"type":"Feature","properties":{"name":"Sikkim","country":"India","iso":"IN"},"geometry":{"type":"Point","coordinates":[88.448,27.571]}},{"type":"Feature","properties":{"name":"Xinjiang","country":"China","iso":"CN"},"geometry":{"type":"Point","coordinates":[85.425,41.122]}},{"type":"Feature","properties":{"name":"Hainan","country":"China","iso":"CN"},"geometry":{"type":"Point","coordinates":[109.825,19.186]}},{"type":"Feature","properties":{"name":"Ningxia","country":"China","iso":"CN"},"geometry":{"type":"Point","coordinates":[106.038,37.176]}},{"type":"Feature","properties":{"name":"Shaanxi","country":"China","iso":"CN"},"geometry":{"type":"Point","coordinates":[108.363,33.771]}},{"type":"Feature","properties":{"name":"Shanxi","country":"China","iso":"CN"},"geometry":{"type":"Point","coordinates":[112.389,37.759]}},{"type":"Feature","properties":{"name":"Hubei","country":"China","iso":"CN"},"geometry":{"type":"Point","coordinates":[112.264,30.986]}},{"type":"Feature","properties":{"name":"Hunan","country":"China","iso":"CN"},"geometry":{"type":"Point","coordinates":[111.712,27.667]}},{"type":"Feature","properties":{"name":"Sichuan","country":"China","iso":"CN"},"geometry":{"type":"Point","coordinates":[102.384,30.543]}},{"type":"Feature","properties":{"name":"Yunnan","country":"China","iso":"CN"},"geometry":{"type":"Point","coordinates":[101.661,24.46]}},{"type":"Feature","properties":{"name":"Hebei","country":"China","iso":"CN"},"geometry":{"type":"Point","coordinates":[115.314,38.52]}},{"type":"Feature","properties":{"name":"Henan","country":"China","iso":"CN"},"geometry":{"type":"Point","coordinates":[113.484,33.906]}},{"type":"Feature","properties":{"name":"Liaoning","country":"China","iso":"CN"},"geometry":{"type":"Point","coordinates":[123.07,41.386]}},{"type":"Feature","properties":{"name":"Shandong","country":"China","iso":"CN"},"geometry":{"type":"Point","coordinates":[118.114,36.327]}},{"type":"Feature","properties":{"name":"Tianjin","country":"China","iso":"CN"},"geometry":{"type":"Point","coordinates":[117.347,39.371]}},{"type":"Feature","properties":{"name":"Jiangxi","country":"China","iso":"CN"},"geometry":{"type":"Point","coordinates":[116.017,27.64]}},{"type":"Feature","properties":{"name":"Jiangsu","country":"China","iso":"CN"},"geometry":{"type":"Point","coordinates":[119.942,32.984]}},{"type":"Feature","properties":{"name":"Shanghai","country":"China","iso":"CN"},"geometry":{"type":"Point","coordinates":[121.409,31.091]}},{"type":"Feature","properties":{"name":"Zhejiang","country":"China","iso":"CN"},"geometry":{"type":"Point","coordinates":[119.97,29.108]}},{"type":"Feature","properties":{"name":"Jilin","country":"China","iso":"CN"},"geometry":{"type":"Point","coordinates":[126.466,43.298]}},{"type":"Feature","properties":{"name":"Inner Mongol","country":"China","iso":"CN"},"geometry":{"type":"Point","coordinates":[111.623,41.594]}},{"type":"Feature","properties":{"name":"Heilongjiang","country":"China","iso":"CN"},"geometry":{"type":"Point","coordinates":[127.97,46.845]}},{"type":"Feature","properties":{"name":"Aceh","country":"Indonesia","iso":"ID"},"geometry":{"type":"Point","coordinates":[96.996,4.415]}},{"type":"Feature","properties":{"name":"Kalimantan Timur","country":"Indonesia","iso":"ID"},"geometry":{"type":"Point","coordinates":[116.354,1.289]}},{"type":"Feature","properties":{"name":"Jawa Barat","country":"Indonesia","iso":"ID"},"geometry":{"type":"Point","coordinates":[107.638,-6.908]}},{"type":"Feature","properties":{"name":"Jawa Tengah","country":"Indonesia","iso":"ID"},"geometry":{"type":"Point","coordinates":[109.896,-7.29]}},{"type":"Feature","properties":{"name":"Bengkulu","country":"Indonesia","iso":"ID"},"geometry":{"type":"Point","coordinates":[102.368,-3.486]}},{"type":"Feature","properties":{"name":"Banten","country":"Indonesia","iso":"ID"},"geometry":{"type":"Point","coordinates":[106.167,-6.258]}},{"type":"Feature","properties":{"name":"Jakarta Raya","country":"Indonesia","iso":"ID"},"geometry":{"type":"Point","coordinates":[106.837,-6.225]}},{"type":"Feature","properties":{"name":"Kalimantan Barat","country":"Indonesia","iso":"ID"},"geometry":{"type":"Point","coordinates":[111.304,-0.064]}},{"type":"Feature","properties":{"name":"Lampung","country":"Indonesia","iso":"ID"},"geometry":{"type":"Point","coordinates":[105.059,-4.919]}},{"type":"Feature","properties":{"name":"Sumatera Selatan","country":"Indonesia","iso":"ID"},"geometry":{"type":"Point","coordinates":[104.073,-3.382]}},{"type":"Feature","properties":{"name":"Bangka-Belitung","country":"Indonesia","iso":"ID"},"geometry":{"type":"Point","coordinates":[106.819,-2.958]}},{"type":"Feature","properties":{"name":"Bali","country":"Indonesia","iso":"ID"},"geometry":{"type":"Point","coordinates":[115.179,-8.341]}},{"type":"Feature","properties":{"name":"Jawa Timur","country":"Indonesia","iso":"ID"},"geometry":{"type":"Point","coordinates":[112.616,-7.881]}},{"type":"Feature","properties":{"name":"Kalimantan Selatan","country":"Indonesia","iso":"ID"},"geometry":{"type":"Point","coordinates":[115.451,-3.007]}},{"type":"Feature","properties":{"name":"Nusa Tenggara Timur","country":"Indonesia","iso":"ID"},"geometry":{"type":"Point","coordinates":[120.689,-8.584]}},{"type":"Feature","properties":{"name":"Sulawesi Selatan","country":"Indonesia","iso":"ID"},"geometry":{"type":"Point","coordinates":[119.99,-3.744]}},{"type":"Feature","properties":{"name":"Sulawesi Barat","country":"Indonesia","iso":"ID"},"geometry":{"type":"Point","coordinates":[119.316,-2.696]}},{"type":"Feature","properties":{"name":"Kepulauan Riau","country":"Indonesia","iso":"ID"},"geometry":{"type":"Point","coordinates":[104.601,-0.143]}},{"type":"Feature","properties":{"name":"Gorontalo","country":"Indonesia","iso":"ID"},"geometry":{"type":"Point","coordinates":[122.331,0.761]}},{"type":"Feature","properties":{"name":"Jambi","country":"Indonesia","iso":"ID"},"geometry":{"type":"Point","coordinates":[102.823,-1.655]}},{"type":"Feature","properties":{"name":"Kalimantan Tengah","country":"Indonesia","iso":"ID"},"geometry":{"type":"Point","coordinates":[113.286,-1.842]}},{"type":"Feature","properties":{"name":"Papua Barat","country":"Indonesia","iso":"ID"},"geometry":{"type":"Point","coordinates":[132.825,-1.325]}},{"type":"Feature","properties":{"name":"Sumatera Utara","country":"Indonesia","iso":"ID"},"geometry":{"type":"Point","coordinates":[99.216,2.363]}},{"type":"Feature","properties":{"name":"Riau","country":"Indonesia","iso":"ID"},"geometry":{"type":"Point","coordinates":[101.745,0.397]}},{"type":"Feature","properties":{"name":"Sulawesi Utara","country":"Indonesia","iso":"ID"},"geometry":{"type":"Point","coordinates":[124.446,0.853]}},{"type":"Feature","properties":{"name":"Maluku Utara","country":"Indonesia","iso":"ID"},"geometry":{"type":"Point","coordinates":[125.976,-2.289]}},{"type":"Feature","properties":{"name":"Sumatera Barat","country":"Indonesia","iso":"ID"},"geometry":{"type":"Point","coordinates":[100.611,-0.643]}},{"type":"Feature","properties":{"name":"Yogyakarta","country":"Indonesia","iso":"ID"},"geometry":{"type":"Point","coordinates":[110.443,-7.835]}},{"type":"Feature","properties":{"name":"Maluku","country":"Indonesia","iso":"ID"},"geometry":{"type":"Point","coordinates":[128.161,-8.248]}},{"type":"Feature","properties":{"name":"Nusa Tenggara Barat","country":"Indonesia","iso":"ID"},"geometry":{"type":"Point","coordinates":[116.294,-8.571]}},{"type":"Feature","properties":{"name":"Sulawesi Tenggara","country":"Indonesia","iso":"ID"},"geometry":{"type":"Point","coordinates":[122.119,-4.075]}},{"type":"Feature","properties":{"name":"Sulawesi Tengah","country":"Indonesia","iso":"ID"},"geometry":{"type":"Point","coordinates":[120.153,-1.301]}},{"type":"Feature","properties":{"name":"Papua","country":"Indonesia","iso":"ID"},"geometry":{"type":"Point","coordinates":[138.689,-4.108]}},{"type":"Feature","properties":{"name":"Telangana","country":"India","iso":"IN"},"geometry":{"type":"Point","coordinates":[78.468,17.427]}},{"type":"Feature","properties":{"name":"Ladakh","country":"India","iso":"IN"},"geometry":{"type":"Point","coordinates":[77.481,34.026]}},{"type":"Feature","properties":{"name":"Chandigarh","country":"India","iso":"IN"},"geometry":{"type":"Point","coordinates":[76.76,30.745]}},{"type":"Feature","properties":{"name":"Delhi","country":"India","iso":"IN"},"geometry":{"type":"Point","coordinates":[77.086,28.69]}},{"type":"Feature","properties":{"name":"Himachal Pradesh","country":"India","iso":"IN"},"geometry":{"type":"Point","coordinates":[77.287,31.675]}},{"type":"Feature","properties":{"name":"Haryana","country":"India","iso":"IN"},"geometry":{"type":"Point","coordinates":[76.271,29.1]}},{"type":"Feature","properties":{"name":"Jammu and Kashmir","country":"India","iso":"IN"},"geometry":{"type":"Point","coordinates":[76.639,33.966]}},{"type":"Feature","properties":{"name":"Andhra Pradesh","country":"India","iso":"IN"},"geometry":{"type":"Point","coordinates":[79.208,16.485]}},{"type":"Feature","properties":{"name":"Kerala","country":"India","iso":"IN"},"geometry":{"type":"Point","coordinates":[76.524,10.367]}},{"type":"Feature","properties":{"name":"Lakshadweep","country":"India","iso":"IN"},"geometry":{"type":"Point","coordinates":[72.781,11.225]}},{"type":"Feature","properties":{"name":"Odisha","country":"India","iso":"IN"},"geometry":{"type":"Point","coordinates":[84.434,20.625]}},{"type":"Feature","properties":{"name":"Dadra and Nagar Haveli and Daman and Diu","country":"India","iso":"IN"},"geometry":{"type":"Point","coordinates":[73.029,20.184]}},{"type":"Feature","properties":{"name":"Karnataka","country":"India","iso":"IN"},"geometry":{"type":"Point","coordinates":[75.667,14.368]}},{"type":"Feature","properties":{"name":"Goa","country":"India","iso":"IN"},"geometry":{"type":"Point","coordinates":[73.995,15.313]}},{"type":"Feature","properties":{"name":"Andaman and Nicobar","country":"India","iso":"IN"},"geometry":{"type":"Point","coordinates":[93.79,6.837]}},{"type":"Feature","properties":{"name":"Assam","country":"India","iso":"IN"},"geometry":{"type":"Point","coordinates":[92.993,26.33]}},{"type":"Feature","properties":{"name":"Manipur","country":"India","iso":"IN"},"geometry":{"type":"Point","coordinates":[93.846,24.744]}},{"type":"Feature","properties":{"name":"Nagaland","country":"India","iso":"IN"},"geometry":{"type":"Point","coordinates":[94.566,26.109]}},{"type":"Feature","properties":{"name":"Meghalaya","country":"India","iso":"IN"},"geometry":{"type":"Point","coordinates":[91.303,25.48]}},{"type":"Feature","properties":{"name":"Punjab","country":"India","iso":"IN"},"geometry":{"type":"Point","coordinates":[75.376,31.024]}},{"type":"Feature","properties":{"name":"Rajasthan","country":"India","iso":"IN"},"geometry":{"type":"Point","coordinates":[73.856,26.747]}},{"type":"Feature","properties":{"name":"Uttar Pradesh","country":"India","iso":"IN"},"geometry":{"type":"Point","coordinates":[80.997,26.72]}},{"type":"Feature","properties":{"name":"Uttarakhand","country":"India","iso":"IN"},"geometry":{"type":"Point","coordinates":[79.284,30.058]}},{"type":"Feature","properties":{"name":"Jharkhand","country":"India","iso":"IN"},"geometry":{"type":"Point","coordinates":[85.058,23.522]}},{"type":"Feature","properties":{"name":"West Bengal","country":"India","iso":"IN"},"geometry":{"type":"Point","coordinates":[87.729,23.052]}},{"type":"Feature","properties":{"name":"Bihar","country":"India","iso":"IN"},"geometry":{"type":"Point","coordinates":[85.813,25.685]}},{"type":"Feature","properties":{"name":"Chhattisgarh","country":"India","iso":"IN"},"geometry":{"type":"Point","coordinates":[82.307,21.804]}},{"type":"Feature","properties":{"name":"Madhya Pradesh","country":"India","iso":"IN"},"geometry":{"type":"Point","coordinates":[78.421,22.94]}},{"type":"Feature","properties":{"name":"Puducherry","country":"India","iso":"IN"},"geometry":{"type":"Point","coordinates":[79.776,10.922]}},{"type":"Feature","properties":{"name":"Tamil Nadu","country":"India","iso":"IN"},"geometry":{"type":"Point","coordinates":[78.27,11.016]}},{"type":"Feature","properties":{"name":"Gujarat","country":"India","iso":"IN"},"geometry":{"type":"Point","coordinates":[71.301,22.75]}},{"type":"Feature","properties":{"name":"Arunachal Pradesh","country":"India","iso":"IN"},"geometry":{"type":"Point","coordinates":[94.467,28.406]}},{"type":"Feature","properties":{"name":"Mizoram","country":"India","iso":"IN"},"geometry":{"type":"Point","coordinates":[92.841,23.204]}},{"type":"Feature","properties":{"name":"Tripura","country":"India","iso":"IN"},"geometry":{"type":"Point","coordinates":[91.703,23.852]}},{"type":"Feature","properties":{"name":"Tomsk","country":"Russia","iso":"RU"},"geometry":{"type":"Point","coordinates":[82.23,58.447]}},{"type":"Feature","properties":{"name":"Adygey","country":"Russia","iso":"RU"},"geometry":{"type":"Point","coordinates":[40.129,44.466]}},{"type":"Feature","properties":{"name":"Karachay-Cherkess","country":"Russia","iso":"RU"},"geometry":{"type":"Point","coordinates":[41.687,43.707]}},{"type":"Feature","properties":{"name":"Ingush","country":"Russia","iso":"RU"},"geometry":{"type":"Point","coordinates":[44.847,43.366]}},{"type":"Feature","properties":{"name":"Kabardin-Balkar","country":"Russia","iso":"RU"},"geometry":{"type":"Point","coordinates":[43.398,43.376]}},{"type":"Feature","properties":{"name":"North Ossetia","country":"Russia","iso":"RU"},"geometry":{"type":"Point","coordinates":[44.165,42.997]}},{"type":"Feature","properties":{"name":"Stavropol'","country":"Russia","iso":"RU"},"geometry":{"type":"Point","coordinates":[43.279,44.981]}},{"type":"Feature","properties":{"name":"Chukchi Autonomous Okrug","country":"Russia","iso":"RU"},"geometry":{"type":"Point","coordinates":[170.516,66.752]}},{"type":"Feature","properties":{"name":"Kaliningrad","country":"Russia","iso":"RU"},"geometry":{"type":"Point","coordinates":[21.229,54.664]}},{"type":"Feature","properties":{"name":"Murmansk","country":"Russia","iso":"RU"},"geometry":{"type":"Point","coordinates":[34.321,67.961]}},{"type":"Feature","properties":{"name":"Novgorod","country":"Russia","iso":"RU"},"geometry":{"type":"Point","coordinates":[32.945,58.423]}},{"type":"Feature","properties":{"name":"Pskov","country":"Russia","iso":"RU"},"geometry":{"type":"Point","coordinates":[29.123,57.245]}},{"type":"Feature","properties":{"name":"Leningrad","country":"Russia","iso":"RU"},"geometry":{"type":"Point","coordinates":[32.774,59.99]}},{"type":"Feature","properties":{"name":"City of St. Petersburg","country":"Russia","iso":"RU"},"geometry":{"type":"Point","coordinates":[30.29,59.806]}},{"type":"Feature","properties":{"name":"Bryansk","country":"Russia","iso":"RU"},"geometry":{"type":"Point","coordinates":[33.28,53.087]}},{"type":"Feature","properties":{"name":"Smolensk","country":"Russia","iso":"RU"},"geometry":{"type":"Point","coordinates":[33.08,54.673]}},{"type":"Feature","properties":{"name":"Karelia","country":"Russia","iso":"RU"},"geometry":{"type":"Point","coordinates":[33.145,63.529]}},{"type":"Feature","properties":{"name":"Arkhangel'sk","country":"Russia","iso":"RU"},"geometry":{"type":"Point","coordinates":[41.994,63.313]}},{"type":"Feature","properties":{"name":"Ivanovo","country":"Russia","iso":"RU"},"geometry":{"type":"Point","coordinates":[41.624,57.121]}},{"type":"Feature","properties":{"name":"Vologda","country":"Russia","iso":"RU"},"geometry":{"type":"Point","coordinates":[40.933,59.64]}},{"type":"Feature","properties":{"name":"Kostroma","country":"Russia","iso":"RU"},"geometry":{"type":"Point","coordinates":[43.469,58.388]}},{"type":"Feature","properties":{"name":"Nizhegorod","country":"Russia","iso":"RU"},"geometry":{"type":"Point","coordinates":[44.775,56.138]}},{"type":"Feature","properties":{"name":"Tver'","country":"Russia","iso":"RU"},"geometry":{"type":"Point","coordinates":[34.544,57.03]}},{"type":"Feature","properties":{"name":"Yaroslavl'","country":"Russia","iso":"RU"},"geometry":{"type":"Point","coordinates":[39.255,57.733]}},{"type":"Feature","properties":{"name":"Kaluga","country":"Russia","iso":"RU"},"geometry":{"type":"Point","coordinates":[35.342,54.242]}},{"type":"Feature","properties":{"name":"Kursk","country":"Russia","iso":"RU"},"geometry":{"type":"Point","coordinates":[36.292,51.736]}},{"type":"Feature","properties":{"name":"Lipetsk","country":"Russia","iso":"RU"},"geometry":{"type":"Point","coordinates":[39.207,52.746]}},{"type":"Feature","properties":{"name":"Moskovskaya","country":"Russia","iso":"RU"},"geometry":{"type":"Point","coordinates":[38.671,55.151]}},{"type":"Feature","properties":{"name":"Moskva","country":"Russia","iso":"RU"},"geometry":{"type":"Point","coordinates":[37.619,55.718]}},{"type":"Feature","properties":{"name":"Orel","country":"Russia","iso":"RU"},"geometry":{"type":"Point","coordinates":[36.417,52.878]}},{"type":"Feature","properties":{"name":"Rostov","country":"Russia","iso":"RU"},"geometry":{"type":"Point","coordinates":[41.261,47.991]}},{"type":"Feature","properties":{"name":"Tula","country":"Russia","iso":"RU"},"geometry":{"type":"Point","coordinates":[37.416,54.067]}},{"type":"Feature","properties":{"name":"Volgograd","country":"Russia","iso":"RU"},"geometry":{"type":"Point","coordinates":[44.449,49.501]}},{"type":"Feature","properties":{"name":"Belgorod","country":"Russia","iso":"RU"},"geometry":{"type":"Point","coordinates":[37.277,50.876]}},{"type":"Feature","properties":{"name":"Krasnodar","country":"Russia","iso":"RU"},"geometry":{"type":"Point","coordinates":[39.469,45.84]}},{"type":"Feature","properties":{"name":"Mordovia","country":"Russia","iso":"RU"},"geometry":{"type":"Point","coordinates":[44.463,54.115]}},{"type":"Feature","properties":{"name":"Penza","country":"Russia","iso":"RU"},"geometry":{"type":"Point","coordinates":[44.816,53.056]}},{"type":"Feature","properties":{"name":"Ryazan'","country":"Russia","iso":"RU"},"geometry":{"type":"Point","coordinates":[40.626,54.336]}},{"type":"Feature","properties":{"name":"Tambov","country":"Russia","iso":"RU"},"geometry":{"type":"Point","coordinates":[41.594,52.781]}},{"type":"Feature","properties":{"name":"Vladimir","country":"Russia","iso":"RU"},"geometry":{"type":"Point","coordinates":[40.621,55.897]}},{"type":"Feature","properties":{"name":"Voronezh","country":"Russia","iso":"RU"},"geometry":{"type":"Point","coordinates":[40.522,50.777]}},{"type":"Feature","properties":{"name":"Bashkortostan","country":"Russia","iso":"RU"},"geometry":{"type":"Point","coordinates":[56.557,54.209]}},{"type":"Feature","properties":{"name":"Chelyabinsk","country":"Russia","iso":"RU"},"geometry":{"type":"Point","coordinates":[60.238,54.113]}},{"type":"Feature","properties":{"name":"Kurgan","country":"Russia","iso":"RU"},"geometry":{"type":"Point","coordinates":[65.35,55.432]}},{"type":"Feature","properties":{"name":"Nenets","country":"Russia","iso":"RU"},"geometry":{"type":"Point","coordinates":[56.288,67.827]}},{"type":"Feature","properties":{"name":"Yamal-Nenets","country":"Russia","iso":"RU"},"geometry":{"type":"Point","coordinates":[75.187,65.412]}},{"type":"Feature","properties":{"name":"Komi","country":"Russia","iso":"RU"},"geometry":{"type":"Point","coordinates":[55.818,64.119]}},{"type":"Feature","properties":{"name":"Kirov","country":"Russia","iso":"RU"},"geometry":{"type":"Point","coordinates":[50.111,58.193]}},{"type":"Feature","properties":{"name":"Mariy-El","country":"Russia","iso":"RU"},"geometry":{"type":"Point","coordinates":[47.913,56.541]}},{"type":"Feature","properties":{"name":"Sverdlovsk","country":"Russia","iso":"RU"},"geometry":{"type":"Point","coordinates":[61.708,58.895]}},{"type":"Feature","properties":{"name":"Udmurt","country":"Russia","iso":"RU"},"geometry":{"type":"Point","coordinates":[52.796,57.343]}},{"type":"Feature","properties":{"name":"Astrakhan'","country":"Russia","iso":"RU"},"geometry":{"type":"Point","coordinates":[47.723,47.033]}},{"type":"Feature","properties":{"name":"Chuvash","country":"Russia","iso":"RU"},"geometry":{"type":"Point","coordinates":[47.166,55.488]}},{"type":"Feature","properties":{"name":"Kalmyk","country":"Russia","iso":"RU"},"geometry":{"type":"Point","coordinates":[45.468,46.519]}},{"type":"Feature","properties":{"name":"Samara","country":"Russia","iso":"RU"},"geometry":{"type":"Point","coordinates":[50.438,53.178]}},{"type":"Feature","properties":{"name":"Orenburg","country":"Russia","iso":"RU"},"geometry":{"type":"Point","coordinates":[56.215,51.516]}},{"type":"Feature","properties":{"name":"Saratov","country":"Russia","iso":"RU"},"geometry":{"type":"Point","coordinates":[46.637,51.674]}},{"type":"Feature","properties":{"name":"Tatarstan","country":"Russia","iso":"RU"},"geometry":{"type":"Point","coordinates":[50.736,55.374]}},{"type":"Feature","properties":{"name":"Ul'yanovsk","country":"Russia","iso":"RU"},"geometry":{"type":"Point","coordinates":[47.377,53.925]}},{"type":"Feature","properties":{"name":"Khanty-Mansiy","country":"Russia","iso":"RU"},"geometry":{"type":"Point","coordinates":[71.381,61.431]}},{"type":"Feature","properties":{"name":"Omsk","country":"Russia","iso":"RU"},"geometry":{"type":"Point","coordinates":[73.4,56.047]}},{"type":"Feature","properties":{"name":"Tyumen'","country":"Russia","iso":"RU"},"geometry":{"type":"Point","coordinates":[68.519,57.264]}},{"type":"Feature","properties":{"name":"Altay","country":"Russia","iso":"RU"},"geometry":{"type":"Point","coordinates":[82.867,52.427]}},{"type":"Feature","properties":{"name":"Gorno-Altay","country":"Russia","iso":"RU"},"geometry":{"type":"Point","coordinates":[86.937,50.978]}},{"type":"Feature","properties":{"name":"Kemerovo","country":"Russia","iso":"RU"},"geometry":{"type":"Point","coordinates":[87.168,54.646]}},{"type":"Feature","properties":{"name":"Khakass","country":"Russia","iso":"RU"},"geometry":{"type":"Point","coordinates":[89.841,53.364]}},{"type":"Feature","properties":{"name":"Novosibirsk","country":"Russia","iso":"RU"},"geometry":{"type":"Point","coordinates":[80.083,55.314]}},{"type":"Feature","properties":{"name":"Chechnya","country":"Russia","iso":"RU"},"geometry":{"type":"Point","coordinates":[45.757,43.215]}},{"type":"Feature","properties":{"name":"Dagestan","country":"Russia","iso":"RU"},"geometry":{"type":"Point","coordinates":[47.142,42.36]}},{"type":"Feature","properties":{"name":"Irkutsk","country":"Russia","iso":"RU"},"geometry":{"type":"Point","coordinates":[105.966,56.825]}},{"type":"Feature","properties":{"name":"Krasnoyarsk","country":"Russia","iso":"RU"},"geometry":{"type":"Point","coordinates":[95.203,65.56]}},{"type":"Feature","properties":{"name":"Tuva","country":"Russia","iso":"RU"},"geometry":{"type":"Point","coordinates":[93.993,51.605]}},{"type":"Feature","properties":{"name":"Buryat","country":"Russia","iso":"RU"},"geometry":{"type":"Point","coordinates":[109.341,52.906]}},{"type":"Feature","properties":{"name":"Amur","country":"Russia","iso":"RU"},"geometry":{"type":"Point","coordinates":[128.354,52.924]}},{"type":"Feature","properties":{"name":"Chita","country":"Russia","iso":"RU"},"geometry":{"type":"Point","coordinates":[116.559,52.159]}},{"type":"Feature","properties":{"name":"Primor'ye","country":"Russia","iso":"RU"},"geometry":{"type":"Point","coordinates":[134.594,44.862]}},{"type":"Feature","properties":{"name":"Sakha (Yakutia)","country":"Russia","iso":"RU"},"geometry":{"type":"Point","coordinates":[130.989,65.596]}},{"type":"Feature","properties":{"name":"Yevrey","country":"Russia","iso":"RU"},"geometry":{"type":"Point","coordinates":[132.758,48.64]}},{"type":"Feature","properties":{"name":"Khabarovsk","country":"Russia","iso":"RU"},"geometry":{"type":"Point","coordinates":[135.443,57.023]}},{"type":"Feature","properties":{"name":"Maga Buryatdan","country":"Russia","iso":"RU"},"geometry":{"type":"Point","coordinates":[153.797,62.626]}},{"type":"Feature","properties":{"name":"Sakhalin","country":"Russia","iso":"RU"},"geometry":{"type":"Point","coordinates":[152.467,47.348]}},{"type":"Feature","properties":{"name":"Crimea","country":"Russia","iso":"RU"},"geometry":{"type":"Point","coordinates":[34.278,45.312]}},{"type":"Feature","properties":{"name":"Perm'","country":"Russia","iso":"RU"},"geometry":{"type":"Point","coordinates":[56.588,58.873]}},{"type":"Feature","properties":{"name":"Kamchatka","country":"Russia","iso":"RU"},"geometry":{"type":"Point","coordinates":[160.187,56.532]}},{"type":"Feature","properties":{"name":"Sevastopol","country":"Russia","iso":"RU"},"geometry":{"type":"Point","coordinates":[33.64,44.518]}},{"type":"Feature","properties":{"name":"Northern Cape","country":"South Africa","iso":"ZA"},"geometry":{"type":"Point","coordinates":[20.996,-29.744]}},{"type":"Feature","properties":{"name":"Western Cape","country":"South Africa","iso":"ZA"},"geometry":{"type":"Point","coordinates":[20.974,-33.504]}},{"type":"Feature","properties":{"name":"North West","country":"South Africa","iso":"ZA"},"geometry":{"type":"Point","coordinates":[25.74,-26.4]}},{"type":"Feature","properties":{"name":"Free State","country":"South Africa","iso":"ZA"},"geometry":{"type":"Point","coordinates":[26.491,-28.581]}},{"type":"Feature","properties":{"name":"Gauteng","country":"South Africa","iso":"ZA"},"geometry":{"type":"Point","coordinates":[28.207,-26.168]}},{"type":"Feature","properties":{"name":"Mpumalanga","country":"South Africa","iso":"ZA"},"geometry":{"type":"Point","coordinates":[30.142,-25.989]}},{"type":"Feature","properties":{"name":"Limpopo","country":"South Africa","iso":"ZA"},"geometry":{"type":"Point","coordinates":[29.13,-23.586]}},{"type":"Feature","properties":{"name":"KwaZulu-Natal","country":"South Africa","iso":"ZA"},"geometry":{"type":"Point","coordinates":[30.823,-28.747]}},{"type":"Feature","properties":{"name":"Eastern Cape","country":"South Africa","iso":"ZA"},"geometry":{"type":"Point","coordinates":[26.642,-32.062]}},{"type":"Feature","properties":{"name":"Maharashtra","country":"India","iso":"IN"},"geometry":{"type":"Point","coordinates":[75.465,19.472]}}]}