{"type":"FeatureCollection","features":[{"type":"Feature","properties":{"name":"Africa","kind":"continent"},"geometry":{"type":"Point","coordinates":[18.459,5.016]}},{"type":"Feature","properties":{"name":"Antarctica","kind":"continent"},"geometry":{"type":"Point","coordinates":[35.885,-79.843]}},{"type":"Feature","properties":{"name":"Asia","kind":"continent"},"geometry":{"type":"Point","coordinates":[84.639,26.165]}},{"type":"Feature","properties":{"name":"Europe","kind":"continent"},"geometry":{"type":"Point","coordinates":[15.663,49.896]}},{"type":"Feature","properties":{"name":"North America","kind":"continent"},"geometry":{"type":"Point","coordinates":[-90.125,27.695]}},{"type":"Feature","properties":{"name":"Oceania","kind":"continent"},"geometry":{"type":"Point","coordinates":[150.261,-20.645]}},{"type":"Feature","properties":{"name":"South America","kind":"continent"},"geometry":{"type":"Point","coordinates":[-63.507,-13.114]}},{"type":"Feature","properties":{"name":"Antarctica","kind":"subregion"},"geometry":{"type":"Point","coordinates":[35.885,-79.843]}},{"type":"Feature","properties":{"name":"Australia and New Zealand","kind":"subregion"},"geometry":{"type":"Point","coordinates":[145.892,-28.907]}},{"type":"Feature","properties":{"name":"Caribbean","kind":"subregion"},"geometry":{"type":"Point","coordinates":[-72.382,19.092]}},{"type":"Feature","properties":{"name":"Central America","kind":"subregion"},"geometry":{"type":"Point","coordinates":[-92.864,17.387]}},{"type":"Feature","properties":{"name":"Central Asia","kind":"subregion"},"geometry":{"type":"Point","coordinates":[67.32,42.601]}},{"type":"Feature","properties":{"name":"Eastern Africa","kind":"subregion"},"geometry":{"type":"Point","coordinates":[36.205,-2.961]}},{"type":"Feature","properties":{"name":"Eastern Asia","kind":"subregion"},"geometry":{"type":"Point","coordinates":[116.495,33.796]}},{"type":"Feature","properties":{"name":"Eastern Europe","kind":"subregion"},"geometry":{"type":"Point","coordinates":[29.501,51.459]}},{"type":"Feature","properties":{"name":"Melanesia","kind":"subregion"},"geometry":{"type":"Point","coordinates":[155.717,-10.326]}},{"type":"Feature","properties":{"name":"Middle Africa","kind":"subregion"},"geometry":{"type":"Point","coordinates":[18.228,0.493]}},{"type":"Feature","properties":{"name":"Northern Africa","kind":"subregion"},"geometry":{"type":"Point","coordinates":[14.72,26.23]}},{"type":"Feature","properties":{"name":"Northern America","kind":"subregion"},"geometry":{"type":"Point","coordinates":[-98.028,45.08]}},{"type":"Feature","properties":{"name":"Northern Europe","kind":"subregion"},"geometry":{"type":"Point","coordinates":[8.969,57.955]}},{"type":"Feature","properties":{"name":"Seven seas (open ocean)","kind":"subregion"},"geometry":{"type":"Point","coordinates":[69.122,-49.304]}},{"type":"Feature","properties":{"name":"South America","kind":"subregion"},"geometry":{"type":"Point","coordinates":[-63.507,-13.114]}},{"type":"Feature","properties":{"name":"South-Eastern Asia","kind":"subregion"},"geometry":{"type":"Point","coordinates":[106.582,10.702]}},{"type":"Feature","properties":{"name":"Southern Africa","kind":"subregion"},"geometry":{"type":"Point","coordinates":[24.077,-27.472]}},{"type":"Feature","properties":{"name":"Southern Asia","kind":"subregion"},"geometry":{"type":"Point","coordinates":[76.152,25.314]}},{"type":"Feature","properties":{"name":"Southern Europe","kind":"subregion"},"geometry":{"type":"Point","coordinates":[10.419,42.405]}},{"type":"Feature","properties":{"name":"Western Africa","kind":"subregion"},"geometry":{"type":"Point","coordinates":[-1.584,11.459]}},{"type":"Feature","properties":{"name":"Western Asia","kind":"subregion"},"geometry":{"type":"Point","coordinates":[42.018,31.104]}},{"type":"Feature","properties":{"name":"Western Europe","kind":"subregion"},"geometry":{"type":"Point","coordinates":[6.894,49.279]}}]}